OBJECT_NAME,OBJECT_ID,EPOCH,MEAN_MOTION,ECCENTRICITY,INCLINATION,RA_OF_ASC_NODE,ARG_OF_PERICENTER,MEAN_ANOMALY,EPHEMERIS_TYPE,CLASSIFICATION_TYPE,NORAD_CAT_ID,ELEMENT_SET_NO,REV_AT_EPOCH,BSTAR,MEAN_MOTION_DOT,MEAN_MOTION_DDOT
BEIDOU-2 G8 (C01),2019-027A,2026-06-18T06:45:56.003616,1.00270428,.00101561,1.6612,74.4911,281.8036,156.2505,0,U,44231,999,2609,0,-.254E-5,0
COSMOS 2534 (758),2019-030A,2026-06-16T03:36:36.198144,2.13102184,.00133893,64.3685,192.6516,275.0852,148.6554,0,U,44299,999,5490,0,.77E-6,0
BEIDOU-3 IGSO-2 (C39),2019-035A,2026-06-14T14:58:00.763680,1.00267330,.0039904,55.2456,158.8849,216.4592,231.8306,0,U,44337,999,2564,0,-.71E-6,0
GPS BIII-2  (PRN 18),2019-056A,2026-06-17T15:37:03.434016,2.00569508,.00622015,55.6366,331.1236,197.6161,164.5159,0,U,44506,999,5008,0,-.87E-6,0
BEIDOU-3 M24 (C46),2019-061A,2026-06-17T05:49:07.350816,1.86229098,.00083133,54.3962,182.7262,358.7038,1.3256,0,U,44542,999,4579,0,.6E-6,0
BEIDOU-3 M23 (C45),2019-061B,2026-06-16T13:20:41.756640,1.86227264,.00056705,54.3947,182.7174,338.0060,193.4228,0,U,44543,999,4578,0,.67E-6,0
EUTELSAT 5 WEST B (EGNOS/PRN 121),2019-067A,2026-06-18T02:38:00.761856,1.00272185,.00029744,0.0632,346.6166,97.5152,216.7543,0,U,44624,999,2444,0,-.48E-6,0
BEIDOU-3 M22 (C44),2019-078A,2026-06-16T13:05:14.505792,1.86227179,.00063479,53.9366,299.8507,50.5966,309.4493,0,U,44793,999,4463,0,-.69E-6,0
BEIDOU-3 M21 (C43),2019-078B,2026-06-16T03:33:30.281760,1.86227629,.00042219,53.9102,299.8261,48.5943,311.4305,0,U,44794,999,4463,0,-.69E-6,0
COSMOS 2544 (759),2019-088A,2026-06-17T00:42:18.245376,2.13102676,.00131548,65.5654,73.7363,258.7160,101.1709,0,U,44850,999,5071,0,-.19E-6,0
BEIDOU-3 M19 (C41),2019-090A,2026-06-18T07:12:53.193888,1.86231158,.00179074,56.5601,62.7540,298.0064,262.3772,0,U,44864,999,4425,0,-.56E-6,0
BEIDOU-3 M20 (C42),2019-090B,2026-06-18T03:49:31.992384,1.86231085,.00156633,56.5616,62.7933,312.0889,243.2035,0,U,44865,999,4423,0,-.55E-6,0
BEIDOU-3 G2 (C60),2020-017A,2026-06-18T03:01:58.464768,1.00271803,.00020105,2.8666,47.3602,32.7419,311.8420,0,U,45344,999,2326,0,-.148E-5,0
COSMOS 2545 (760),2020-018A,2026-06-16T06:51:36.735840,2.13102431,.0008397,64.3556,312.4510,230.0424,129.8687,0,U,45358,999,4864,0,-.55E-6,0
BEIDOU-3 G3 (C61),2020-040A,2026-06-18T06:36:11.937024,1.00265804,.00023427,2.4503,67.4478,336.1577,72.4371,0,U,45807,999,2208,0,-.36E-5,0
GPS BIII-3  (PRN 23),2020-041A,2026-06-14T13:20:43.219392,2.00558471,.00637165,56.6678,29.0455,204.6721,21.4099,0,U,45854,999,4398,0,-.64E-6,0
GALAXY 30 (WAAS/PRN 135),2020-056C,2026-06-18T00:21:07.073280,1.00271591,.00021396,0.0152,53.7844,33.3980,59.3498,0,U,46114,999,2130,0,.31E-6,0
COSMOS 2547 (705K),2020-075A,2026-06-12T17:18:40.313088,2.13100258,.00092459,64.5993,192.6246,239.6069,120.3788,0,U,46805,999,4381,0,.119E-5,0
GPS BIII-4  (PRN 14),2020-078A,2026-06-18T06:09:35.768736,2.00564817,.00735831,53.9795,210.7350,207.2867,147.1088,0,U,46826,999,4152,0,.32E-6,0
GPS BIII-5  (PRN 11),2021-054A,2026-06-16T22:59:18.041280,2.00568788,.00253425,55.1744,332.4683,228.5515,94.2637,0,U,48859,999,3674,0,-.87E-6,0
QZS-1R (QZSS/PRN 196),2021-096A,2026-06-16T15:19:17.320224,1.00255427,.07548668,37.4612,79.5914,271.7927,277.3771,0,U,49336,999,1700,0,-.283E-5,0
GSAT0223 (GALILEO 27),2021-116A,2026-06-17T06:52:18.735744,1.70475765,.00015148,57.1604,341.6715,187.4025,353.2654,0,U,49809,999,2818,0,-.89E-6,0
GSAT0224 (GALILEO 28),2021-116B,2026-06-17T23:38:32.037792,1.70475877,.0001177,57.1613,341.6514,159.9709,202.1698,0,U,49810,999,2822,0,-.91E-6,0
COSMOS 2557 (706K),2022-075A,2026-06-18T01:08:20.461056,2.13102010,.0010274,64.2981,314.4551,274.6944,85.1764,0,U,52984,999,3073,0,-.57E-6,0
COSMOS 2559 (707K),2022-130A,2026-06-18T08:04:20.621856,2.13101593,.00125853,64.2705,314.5280,178.2040,181.7898,0,U,54031,999,2871,0,-.58E-6,0
COSMOS 2564 (761),2022-161A,2026-06-17T17:02:54.927744,2.13102007,.0012199,64.7417,192.6944,224.8068,135.1469,0,U,54377,999,2764,0,.6E-6,0
GPS BIII-6  (PRN 28),2023-009A,2026-06-16T14:55:07.086720,2.00571344,.000625,55.1227,148.5411,321.9869,156.3274,0,U,55268,999,2523,0,.44E-6,0
BEIDOU-3 G4 (C62),2023-066A,2026-06-18T06:44:41.123328,1.00273363,.00043567,0.4853,331.8225,180.3372,355.5712,0,U,56564,999,1140,0,-.287E-5,0
NVS-01 (IRNSS-1J),2023-076A,2026-06-18T06:41:33.923040,1.00264298,.00031274,2.1627,244.2917,36.1064,215.9343,0,U,56759,999,1112,0,-.342E-5,0
COSMOS 2569 (703K),2023-114A,2026-06-15T20:17:45.026592,2.13103628,.0010732,65.3014,72.6657,296.8430,63.0791,0,U,57517,999,2223,0,-.23E-6,0
BEIDOU-3 M28 (C50),2023-207A,2026-06-17T20:04:11.351136,1.86229662,.00032476,55.7532,62.2811,347.7630,12.2709,0,U,58654,999,1685,0,-.56E-6,0
